0 DELTA 1 DEB
1 21500U 75052FV  13281.43136794  .00001012  00000-0  41066-3 0  4606
2 21500 100.0569 089.4770 0209016 054.9043 336.0953 14.19174234152507
0 DELTA 1 DEB
1 21500U 75052FV  13283.00075498  .00001084  00000-0  43845-3 0  4611
2 21500 100.0568 091.2578 0208976 050.5723 074.1495 14.19181911152729
0 DELTA 1 DEB
1 21500U 75052FV  13284.12234450  .00001198  00000-0  48215-3 0  4623
2 21500 100.0566 092.5305 0208972 047.4696 044.4240 14.19184146152887
0 DELTA 1 DEB
1 21500U 75052FV  13286.23490971  .00001080  00000-0  43707-3 0  4642
2 21500 100.0568 094.9276 0208917 041.6494 037.6617 14.19189026153181
0 DELTA 1 DEB
1 21500U 75052FV  13288.14057124  .00001631  00000-0  64832-3 0  4658
2 21500 100.0570 097.0899 0208853 036.4019 053.8423 14.19196448153454
0 DELTA 1 DEB
1 21500U 75052FV  13289.26563561  .00001305  00000-0  52335-3 0  4663
2 21500 100.0572 098.3666 0208824 033.2956 041.9234 14.19200191153612
0 DELTA 1 DEB
1 21500U 75052FV  13291.44674877  .00001352  00000-0  54137-3 0  4674
2 21500 100.0574 100.8416 0208797 027.2676 025.5218 14.19205781153921
0 DELTA 1 DEB
1 21500U 75052FV  13292.94723186  .00001473  00000-0  58807-3 0  4681
2 21500 100.0575 102.5441 0208790 023.1192 131.7183 14.19209560154134
0 DELTA 1 DEB
1 21500U 75052FV  13294.13301242  .00001472  00000-0  58778-3 0  4696
2 21500 100.0575 103.8899 0208756 019.8547 070.0530 14.19213019154307
0 DELTA 1 DEB
1 21500U 75052FV  13295.39694513  .00001598  00000-0  63610-3 0  4703
2 21500 100.0573 105.3241 0208719 016.3748 047.6958 14.19216758154483
